LEMUR-2-HUBBLE-4        
1 64565U 25135AP  26188.23633059  .00001085  00000+0  10797-3 0  9998
2 64565  97.7713 301.9077 0001964 185.5472 174.5726 14.93668736 56861
LEMUR-2-SEJONG-2        
1 64586U 25135BL  26188.56093745  .00002166  00000+0  19396-3 0  9994
2 64586  97.7706 303.4461 0003223 253.1473 106.9396 14.96876328 56990
LEMUR-2-HUBBLE-5        
1 64840U 25135BT  26188.11404416  .00001323  00000+0  12888-3 0  9992
2 64840  97.7734 302.4471 0004095 270.5745  89.5005 14.94195154 56887
LEMUR-2-KARENDARRELL    
1 64841U 25135BU  26187.86049561  .00005890  00000+0  47253-3 0  9997
2 64841  97.7696 304.0402 0011589 131.2820 228.9403 15.00420938 56969
LEMUR-2-LUCILLE-ROSE    
1 65403U 25135BV  26188.43411924  .00004650  00000+0  37390-3 0  9996
2 65403  97.7717 304.6479 0013910 213.0258 147.0098 15.00426993 51673
LEMUR-2-AFFIE-WAUWIE    
1 66295U 25248C   26186.82496654  .00022785  00000+0  82702-3 0  9991
2 66295  45.3926  13.9564 0008364 202.7682 157.2838 15.27976863 37441
LEMUR-2-DEANANDMAEVE    
1 66678U 25276N   26188.19769696  .00004589  00000+0  21623-3 0  9995
2 66678  97.4199 261.3438 0004155 292.2862  67.7932 15.19993148 33456
LEMUR-2-STAS-GORBUK     
1 66686U 25276W   26188.15121066  .00004430  00000+0  21123-3 0  9993
2 66686  97.4234 261.3507 0003485 289.3119  70.7738 15.19603156 33443
LEMUR-2-TEODOR          
1 66768U 25276DG  26188.44195286  .00003734  00000+0  17010-3 0  9997
2 66768  97.4139 261.8986 0002348  96.3146 263.8357 15.21281439 33527
LEMUR-2-LAILA           
1 66776U 25276DQ  26188.14983786  .00004674  00000+0  21076-3 0  9994
2 66776  97.4163 261.7444 0002881 106.6204 253.5349 15.21504624 33489
LEMUR-2-CELIJO-SB-PK    
1 66781U 25276DW  26188.44804542  .00004168  00000+0  33756-3 0  9991
2 66781  97.5200 258.5581 0007402  83.3763 276.8303 15.00231883 25669
LEMUR-2-FINNIAN         
1 66782U 25276DX  26188.15331083  .00002687  00000+0  21743-3 0  9992
2 66782  97.5346 258.5193 0008124  28.2723 331.8940 15.00553278 22993
LEMUR-2-STARLIGHT       
1 66783U 25276DY  26187.99363473  .00005101  00000+0  42157-3 0  9998
2 66783  97.5224 257.9552 0014694  71.1239 289.1577 14.99287934 33161
LEMUR-2-TARTIFLETTE     
1 66784U 25276DZ  26187.72500240  .00004212  00000+0  34914-3 0  9999
2 66784  97.5225 257.7037 0013730  79.6577 280.6194 14.99277169 33123
LEMUR-2-VUKASIN         
1 66785U 25276EA  26188.43574986  .00003545  00000+0  28586-3 0  9993
2 66785  97.5242 258.7341 0004226  77.4971 282.6726 15.00499035 33186
LEMUR-2-HOTSPUR-TOM     
1 66786U 25276EB  26187.71887010  .00004474  00000+0  37145-3 0  9992
2 66786  97.5216 257.6747 0013989  70.9230 289.3507 14.99183448 33050
